OBJECT_NAME,OBJECT_ID,EPOCH,MEAN_MOTION,ECCENTRICITY,INCLINATION,RA_OF_ASC_NODE,ARG_OF_PERICENTER,MEAN_ANOMALY,EPHEMERIS_TYPE,CLASSIFICATION_TYPE,NORAD_CAT_ID,ELEMENT_SET_NO,REV_AT_EPOCH,BSTAR,MEAN_MOTION_DOT,MEAN_MOTION_DDOT
2024-166B,2024-166B,2026-06-29T14:37:28.838784,15.75451397,.0002825,96.6778,71.3481,172.1142,188.0170,0,U,61180,999,10269,.91635E-4,.13733E-3,0
GSAT0232 (GALILEO 32),2024-167A,2026-06-30T03:18:41.814144,1.70474459,.00062722,55.1823,220.9584,229.9139,127.0090,0,U,61182,999,1109,0,.74E-6,0
GSAT0226 (GALILEO 31),2024-167B,2026-06-29T09:45:13.487904,1.70474415,.00030044,55.1811,220.9855,232.0216,127.2488,0,U,61183,999,1105,0,.72E-6,0
BEIDOU-3 M25,2024-168B,2026-06-29T21:24:08.878752,1.86230387,.00032102,54.4613,301.8014,296.8564,118.8894,0,U,61186,999,1202,0,-.75E-6,0
BEIDOU-3 M27,2024-168C,2026-06-28T12:52:16.180032,1.86230465,.0001315,54.4579,301.8311,47.1829,314.8202,0,U,61187,999,947,0,-.86E-6,0
JILIN-01 KUANFU 02B 1,2024-169A,2026-06-30T13:52:52.955616,15.08970648,.00028896,97.5585,270.8917,34.4446,325.6969,0,U,61189,999,9784,.22712027E-3,.3525E-4,0
JILIN-01 KUANFU 02B 2,2024-169B,2026-06-30T13:23:00.178080,15.08931003,.00055518,97.5574,270.2581,342.7867,17.3172,0,U,61190,999,9784,.19405181E-3,.2999E-4,0
JILIN-01 KUANFU 02B 3,2024-169C,2026-06-30T13:36:23.695488,15.08971483,.00120244,97.5572,270.7000,260.1782,99.8089,0,U,61191,999,9784,.19765161E-3,.3063E-4,0
JILIN-01 KUANFU 02B 4,2024-169D,2026-06-30T12:51:10.192896,15.08946662,.00127167,97.5534,270.2024,214.2732,145.7677,0,U,61192,999,9784,.26503993E-3,.4128E-4,0
JILIN-01 KUANFU 02B 5,2024-169E,2026-06-30T12:32:59.460288,15.08987138,.00120054,97.5585,270.9771,240.2730,119.7305,0,U,61193,999,9784,.24689243E-3,.3844E-4,0
JILIN-01 KUANFU 02B 6,2024-169F,2026-06-30T13:06:28.421856,15.08945956,.00150212,97.5561,270.8970,275.8800,84.0716,0,U,61194,999,9785,.21090108E-3,.3273E-4,0
TIANQI-29,2024-170A,2026-06-30T13:11:11.731776,13.97704565,.00051444,44.8575,77.1958,162.1420,197.9592,0,U,61195,999,9073,.15329937E-3,.91E-6,0
TIANQI-30,2024-170B,2026-06-30T03:19:41.961504,13.97700757,.00074568,44.8589,79.2829,161.1522,198.9585,0,U,61196,999,9086,.15845361E-3,.98E-6,0
TIANQI-31,2024-170C,2026-06-30T12:20:52.477728,13.97706332,.00071081,44.8626,77.9928,138.9346,221.2020,0,U,61197,999,9081,.15020908E-3,.86E-6,0
TIANQI-32,2024-170D,2026-06-30T12:44:09.838752,13.97698015,.00064055,44.8611,78.0152,135.2560,224.8788,0,U,61198,999,8640,.15356352E-3,.91E-6,0
STARLINK-11209 [DTC],2024-171A,2026-06-29T17:33:44.991072,15.69703808,.00009493,53.1593,344.1308,84.5479,275.5647,0,U,61200,999,10290,.8803652E-5,.478E-5,0
STARLINK-11257 [DTC],2024-171B,2026-06-29T20:30:03.290400,15.69696320,.00010425,53.1595,343.4620,95.4741,264.6396,0,U,61201,999,10201,.22904003E-4,.2186E-4,0
STARLINK-11309 [DTC],2024-171C,2026-06-29T20:22:59.146752,15.69704511,.00009527,53.1594,343.4295,107.3441,252.7681,0,U,61202,999,10201,.13152377E-4,.1005E-4,0
STARLINK-11292 [DTC],2024-171D,2026-06-30T03:54:20.344608,15.69709472,.00007694,53.1586,341.8291,89.0207,271.0899,0,U,61203,999,10206,.566267E-5,.98E-6,0
STARLINK-11302 [DTC],2024-171E,2026-06-30T03:47:16.434240,15.69713577,.00009608,53.1596,341.7968,95.1050,265.0077,0,U,61204,999,10206,.411626E-5,-.9E-6,0
STARLINK-11277 [DTC],2024-171F,2026-06-30T03:33:10.128960,15.69697414,.00007124,53.1583,341.7311,70.4004,289.7091,0,U,61205,999,10206,-.3051304E-5,-.957E-5,0
STARLINK-11279 [DTC],2024-171G,2026-06-30T03:26:04.913088,15.69710596,.0000776,53.1582,341.6979,130.2375,229.8711,0,U,61206,999,10206,.5368246E-5,.62E-6,0
STARLINK-11091 [DTC],2024-171H,2026-06-29T20:01:47.446752,15.69714429,.00013491,53.1602,343.3336,138.2710,221.8411,0,U,61207,999,10201,.23537381E-4,.2264E-4,0
STARLINK-11291 [DTC],2024-171J,2026-06-29T21:12:18.526464,15.69690195,.0000933,53.1588,342.9194,51.7887,308.3214,0,U,61208,999,10202,-.5496366E-5,-.1253E-4,0
STARLINK-11304 [DTC],2024-171K,2026-06-29T18:01:51.449088,15.69705878,.00008965,53.1589,343.5151,64.3841,295.7270,0,U,61209,999,10291,.16405946E-4,.1399E-4,0
STARLINK-11307 [DTC],2024-171L,2026-06-29T17:54:56.340288,15.69702956,.00009644,53.1595,344.2191,74.8297,285.2828,0,U,61210,999,10199,.17510829E-4,.1533E-4,0
STARLINK-11298 [DTC],2024-171M,2026-06-29T17:47:52.420416,15.69706689,.00010715,53.1595,344.1843,85.3159,274.7981,0,U,61211,999,10199,.16278423E-4,.1384E-4,0
STARLINK-11310 [DTC],2024-171N,2026-06-29T20:44:10.870944,15.69703432,.00010071,53.1589,343.5235,69.0784,291.0341,0,U,61212,999,10201,.12015409E-4,.867E-5,0
STARLINK-32386,2024-171P,2026-06-30T04:04:42.091968,15.34377404,.00011233,53.1584,158.2899,95.2766,264.8365,0,U,61213,999,9961,.4422782E-5,-.227E-5,0
STARLINK-32392,2024-171Q,2026-06-30T05:53:37.307616,15.34388948,.00013653,53.1589,158.0509,93.3253,266.7906,0,U,61214,999,9962,.26124471E-4,.506E-5,0
