2024-166B               
1 61180U 24166B   26180.60936156  .00013733  00000+0  91635-4 0  9992
2 61180  96.6778  71.3481 0002825 172.1142 188.0170 15.75451397102690
GSAT0232 (GALILEO 32)   
1 61182U 24167A   26181.13798396  .00000074  00000+0  00000+0 0  9991
2 61182  55.1823 220.9584 0006272 229.9139 127.0090  1.70474459 11097
GSAT0226 (GALILEO 31)   
1 61183U 24167B   26180.40640611  .00000072  00000+0  00000+0 0  9995
2 61183  55.1811 220.9855 0003004 232.0216 127.2488  1.70474415 11058
BEIDOU-3 M25            
1 61186U 24168B   26180.89176943 -.00000075  00000+0  00000+0 0  9998
2 61186  54.4613 301.8014 0003210 296.8564 118.8894  1.86230387 12022
BEIDOU-3 M27            
1 61187U 24168C   26179.53629838 -.00000086  00000+0  00000+0 0  9996
2 61187  54.4579 301.8311 0001315  47.1829 314.8202  1.86230465  9472
JILIN-01 KUANFU 02B 1   
1 61189U 24169A   26181.57839069  .00003525  00000+0  22712-3 0  9993
2 61189  97.5585 270.8917 0002889  34.4446 325.6969 15.08970648 97848
JILIN-01 KUANFU 02B 2   
1 61190U 24169B   26181.55764095  .00002999  00000+0  19405-3 0  9998
2 61190  97.5574 270.2581 0005551 342.7867  17.3172 15.08931003 97843
JILIN-01 KUANFU 02B 3   
1 61191U 24169C   26181.56694092  .00003063  00000+0  19765-3 0  9991
2 61191  97.5572 270.7000 0012024 260.1782  99.8089 15.08971483 97843
JILIN-01 KUANFU 02B 4   
1 61192U 24169D   26181.53553464  .00004128  00000+0  26504-3 0  9998
2 61192  97.5534 270.2024 0012716 214.2732 145.7677 15.08946662 97841
JILIN-01 KUANFU 02B 5   
1 61193U 24169E   26181.52291042  .00003844  00000+0  24689-3 0  9995
2 61193  97.5585 270.9771 0012005 240.2730 119.7305 15.08987138 97844
JILIN-01 KUANFU 02B 6   
1 61194U 24169F   26181.54616229  .00003273  00000+0  21090-3 0  9995
2 61194  97.5561 270.8970 0015021 275.8800  84.0716 15.08945956 97855
TIANQI-29               
1 61195U 24170A   26181.54944134  .00000091  00000+0  15330-3 0  9992
2 61195  44.8575  77.1958 0005144 162.1420 197.9592 13.97704565 90732
TIANQI-30               
1 61196U 24170B   26181.13868011  .00000098  00000+0  15845-3 0  9995
2 61196  44.8589  79.2829 0007456 161.1522 198.9585 13.97700757 90864
TIANQI-31               
1 61197U 24170C   26181.51449627  .00000086  00000+0  15021-3 0  9999
2 61197  44.8626  77.9928 0007108 138.9346 221.2020 13.97706332 90816
TIANQI-32               
1 61198U 24170D   26181.53066943  .00000091  00000+0  15356-3 0  9995
2 61198  44.8611  78.0152 0006405 135.2560 224.8788 13.97698015 86407
STARLINK-11209 [DTC]    
1 61200U 24171A   26180.73177073  .00000478  00000+0  88037-5 0  9995
2 61200  53.1593 344.1308 0000949  84.5479 275.5647 15.69703808102904
STARLINK-11257 [DTC]    
1 61201U 24171B   26180.85420475  .00002186  00000+0  22904-4 0  9994
2 61201  53.1595 343.4620 0001042  95.4741 264.6396 15.69696320102016
STARLINK-11309 [DTC]    
1 61202U 24171C   26180.84929568  .00001005  00000+0  13152-4 0  9995
2 61202  53.1594 343.4295 0000952 107.3441 252.7681 15.69704511102010
STARLINK-11292 [DTC]    
1 61203U 24171D   26181.16273547  .00000098  00000+0  56627-5 0  9997
2 61203  53.1586 341.8291 0000769  89.0207 271.0899 15.69709472102063
STARLINK-11302 [DTC]    
1 61204U 24171E   26181.15782910 -.00000090  00000+0  41163-5 0  9998
2 61204  53.1596 341.7968 0000960  95.1050 265.0077 15.69713577102064
STARLINK-11277 [DTC]    
1 61205U 24171F   26181.14803390 -.00000957  00000+0 -30513-5 0  9994
2 61205  53.1583 341.7311 0000712  70.4004 289.7091 15.69697414102063
STARLINK-11279 [DTC]    
1 61206U 24171G   26181.14311242  .00000062  00000+0  53682-5 0  9992
2 61206  53.1582 341.6979 0000776 130.2375 229.8711 15.69710596102069
STARLINK-11091 [DTC]    
1 61207U 24171H   26180.83457693  .00002264  00000+0  23537-4 0  9990
2 61207  53.1602 343.3336 0001349 138.2710 221.8411 15.69714429102010
STARLINK-11291 [DTC]    
1 61208U 24171J   26180.88354776 -.00001253  00000+0 -54964-5 0  9992
2 61208  53.1588 342.9194 0000933  51.7887 308.3214 15.69690195102029
STARLINK-11304 [DTC]    
1 61209U 24171K   26180.75128992  .00001399  00000+0  16406-4 0  9995
2 61209  53.1589 343.5151 0000896  64.3841 295.7270 15.69705878102913
STARLINK-11307 [DTC]    
1 61210U 24171L   26180.74648542  .00001533  00000+0  17511-4 0  9992
2 61210  53.1595 344.2191 0000964  74.8297 285.2828 15.69702956101995
STARLINK-11298 [DTC]    
1 61211U 24171M   26180.74157894  .00001384  00000+0  16278-4 0  9991
2 61211  53.1595 344.1843 0001071  85.3159 274.7981 15.69706689101993
STARLINK-11310 [DTC]    
1 61212U 24171N   26180.86401471  .00000867  00000+0  12015-4 0  9998
2 61212  53.1589 343.5235 0001007  69.0784 291.0341 15.69703432102016
STARLINK-32386          
1 61213U 24171P   26181.16993162 -.00000227  00000+0  44228-5 0  9999
2 61213  53.1584 158.2899 0001123  95.2766 264.8365 15.34377404 99612
STARLINK-32392          
1 61214U 24171Q   26181.24557069  .00000506  00000+0  26124-4 0  9994
2 61214  53.1589 158.0509 0001365  93.3253 266.7906 15.34388948 99620
